NORAD_CAT_ID,OBJECT_NAME,OBJECT_TYPE,EPOCH,MEAN_MOTION,ECCENTRICITY,INCLINATION,RA_OF_ASC_NODE,ARG_OF_PERICENTER,MEAN_ANOMALY,BSTAR,MEAN_MOTION_DOT,MEAN_MOTION_DDOT,TLE_LINE0,TLE_LINE1,TLE_LINE2,SEMIMAJOR_AXIS,PERIOD,APOGEE,PERIGEE,DECAYED
49749,STARLINK-3250,PAYLOAD,2023-08-22 08:47:41,15.08839359,9.41e-05,53.2176,5.5047,60.855,299.2536,0.00023629,3.475e-05,0.0,0 STARLINK-3250,1 49749U 21115AB  23234.36644701  .00003475  00000-0  23629-3 0  9992,2 49749  53.2176   5.5047 0000941  60.8550 299.2536 15.08839359 96190,6917.882,95.438,540.398,539.096,0.0
49749,STARLINK-3250,PAYLOAD,2023-08-23 11:49:14,15.08842943,9.37e-05,53.2173,0.4492,70.2337,289.8756,1.6272e-05,-2.9e-07,0.0,0 STARLINK-3250,1 49749U 21115AB  23235.49252446 -.00000029  00000-0  16272-4 0  9998,2 49749  53.2173   0.4492 0000937  70.2337 289.8756 15.08842943 96369,6917.871,95.437,540.385,539.088,0.0
49749,STARLINK-3250,PAYLOAD,2023-08-24 11:40:01,15.08841008,0.0001007,53.2176,355.9884,67.4296,292.6803,0.00012508,1.703e-05,0.0,0 STARLINK-3250,1 49749U 21115AB  23236.48612491  .00001703  00000-0  12508-3 0  9994,2 49749  53.2176 355.9884 0001007  67.4296 292.6803 15.08841008 95406,6917.877,95.437,540.439,539.046,0.0
49749,STARLINK-3250,PAYLOAD,2023-08-25 13:06:11,15.08841962,0.0001047,53.2181,351.2313,63.7882,296.3218,7.8724e-05,9.65e-06,0.0,0 STARLINK-3250,1 49749U 21115AB  23237.54596468  .00000965  00000-0  78724-4 0  9999,2 49749  53.2181 351.2313 0001047  63.7882 296.3218 15.08841962 95569,6917.874,95.437,540.464,539.015,0.0
49749,STARLINK-3250,PAYLOAD,2023-08-25 19:27:43,15.08848421,0.0001001,53.2185,350.0409,73.2988,286.8114,0.00012598,1.718e-05,0.0,0 STARLINK-3250,1 49749U 21115AB  23237.81091841  .00001718  00000-0  12598-3 0  9997,2 49749  53.2185 350.0409 0001001  73.2988 286.8114 15.08848421 96713,6917.855,95.437,540.412,539.027,0.0
49749,STARLINK-3250,PAYLOAD,2023-08-26 06:35:26,15.08833127,0.0001228,53.2184,347.96,69.2875,290.8249,4.4719e-05,4.24e-06,0.0,0 STARLINK-3250,1 49749U 21115AB  23238.27461168  .00000424  00000-0  44719-4 0  9995,2 49749  53.2184 347.9600 0001228  69.2875 290.8249 15.08833127 96789,6917.901,95.438,540.616,538.917,0.0
49749,STARLINK-3250,PAYLOAD,2023-08-26 11:21:35,15.08836242,9.99e-05,53.2175,347.0695,74.8709,285.2394,6.3453e-05,7.22e-06,0.0,0 STARLINK-3250,1 49749U 21115AB  23238.47332888  .00000722  00000-0  63453-4 0  9990,2 49749  53.2175 347.0695 0000999  74.8709 285.2394 15.08836242 95707,6917.892,95.438,540.448,539.066,0.0
49749,STARLINK-3250,PAYLOAD,2023-08-27 08:01:35,15.08843394,0.0002232,53.217,343.2017,140.3254,219.7902,0.00011006,1.464e-05,0.0,0 STARLINK-3250,1 49749U 21115AB  23239.33444120  .00001464  00000-0  11006-3 0  9999,2 49749  53.2170 343.2017 0002232 140.3254 219.7902 15.08843394 96944,6917.87,95.437,541.279,538.191,0.0
49749,STARLINK-3250,PAYLOAD,2023-08-27 14:23:07,15.08852397,0.000116,53.2181,342.0131,108.9842,251.1276,0.00012002,1.623e-05,0.0,0 STARLINK-3250,1 49749U 21115AB  23239.59939690  .00001623  00000-0  12002-3 0  9992,2 49749  53.2181 342.0131 0001160 108.9842 251.1276 15.08852397 95870,6917.842,95.437,540.51,538.905,0.0
49749,STARLINK-3250,PAYLOAD,2023-08-28 09:27:46,15.08838957,0.0001128,53.2172,338.4445,94.175,265.9371,4.0592e-05,3.58e-06,0.0,0 STARLINK-3250,1 49749U 21115AB  23240.39428422  .00000358  00000-0  40592-4 0  9998,2 49749  53.2172 338.4445 0001128  94.1750 265.9371 15.08838957 97108,6917.884,95.438,540.529,538.968,0.0
49749,STARLINK-3250,PAYLOAD,2023-08-28 15:49:18,15.08846254,0.000118,53.2177,337.2551,92.1156,267.9971,0.00013823,1.913e-05,0.0,0 STARLINK-3250,1 49749U 21115AB  23240.65924075  .00001913  00000-0  13823-3 0  9996,2 49749  53.2177 337.2551 0001180  92.1156 267.9971 15.08846254 96032,6917.861,95.437,540.543,538.91,0.0
49749,STARLINK-3250,PAYLOAD,2023-08-29 15:40:05,15.08846011,0.0001229,53.2177,332.7951,95.5866,264.5266,0.00013866,1.92e-05,0.0,0 STARLINK-3250,1 49749U 21115AB  23241.65284183  .00001920  00000-0  13866-3 0  9991,2 49749  53.2177 332.7951 0001229  95.5866 264.5266 15.08846011 97295,6917.862,95.437,540.577,538.877,0.0
49749,STARLINK-3250,PAYLOAD,2023-08-30 05:58:36,15.08796384,0.000123,53.2173,330.1189,94.6339,265.4794,-0.00046235,-7.63e-05,0.0,0 STARLINK-3250,1 49749U 21115AB  23242.24903901 -.00007630  00000-0 -46235-3 0  9995,2 49749  53.2173 330.1189 0001230  94.6339 265.4794 15.08796384 97386,6918.014,95.44,540.73,539.028,0.0
49749,STARLINK-3250,PAYLOAD,2023-08-30 13:55:47,15.08511628,0.0001719,53.2172,328.6334,136.6626,223.4502,-0.0043019,-0.00067505,0.0,0 STARLINK-3250,1 49749U 21115AB  23242.58041388 -.00067505  00000-0 -43019-2 0  9997,2 49749  53.2172 328.6334 0001719 136.6626 223.4502 15.08511628 97430,6918.884,95.458,541.939,539.56,0.0
49749,STARLINK-3250,PAYLOAD,2023-08-30 23:28:39,15.08278652,0.0001287,53.2179,326.8521,79.0563,281.0574,-0.0043695,-0.00068119,0.0,0 STARLINK-3250,1 49749U 21115AB  23242.97823627 -.00068119  00000-0 -43695-2 0  9996,2 49749  53.2179 326.8521 0001287  79.0563 281.0574 15.08278652 97497,6919.597,95.473,542.352,540.571,0.0
49749,STARLINK-3250,PAYLOAD,2023-08-31 05:50:26,15.08173912,0.0001141,53.2172,325.6631,102.8791,257.2328,-0.004924,-0.0007642,0.0,0 STARLINK-3250,1 49749U 21115AB  23243.24336292 -.00076420  00000-0 -49240-2 0  9990,2 49749  53.2172 325.6631 0001141 102.8791 257.2328 15.08173912 97536,6919.917,95.48,542.572,540.993,0.0
49749,STARLINK-3250,PAYLOAD,2023-08-31 18:34:18,15.07819152,0.0001051,53.2169,323.2867,93.4523,266.6589,-0.0072741,-0.00111132,0.0,0 STARLINK-3250,1 49749U 21115AB  23243.77382050 -.00111132  00000-0 -72741-2 0  9993,2 49749  53.2169 323.2867 0001051  93.4523 266.6589 15.07819152 97619,6921.002,95.502,543.595,542.14,0.0
49749,STARLINK-3250,PAYLOAD,2023-09-01 06:00:00,15.0720895,0.0001062,53.217,321.1528,82.7725,343.8251,0.0010155,0.0001521,0.0,0 STARLINK-3250,1 49749U 21115AB  23244.25001157  .00015210  00000-0  10155-2 0  9992,2 49749  53.2170 321.1528 0001062  82.7725 343.8251 15.07208950 97688,6922.87,95.541,545.471,544.0,0.0
49749,STARLINK-3250,PAYLOAD,2023-09-01 14:00:01,15.07200897,0.0001108,53.2168,319.6618,72.4094,3.8382,-0.00044985,-7.123e-05,0.0,0 STARLINK-3250,1 49749U 21115AB  23244.58334491 -.00007123  00000-0 -44985-3 0  9993,2 49749  53.2168 319.6618 0001108  72.4094   3.8382 15.07200897  5851,6922.895,95.541,545.527,543.993,0.0
49749,STARLINK-3250,PAYLOAD,2023-09-01 22:00:00,15.07215349,0.0001014,53.2165,318.1679,79.5592,6.3226,-0.0003356,-5.389e-05,0.0,0 STARLINK-3250,1 49749U 21115AB  23244.91667824 -.00005389  00000-0 -33560-3 0  9998,2 49749  53.2165 318.1679 0001014  79.5592   6.3226 15.07215349  5859,6922.851,95.54,545.418,544.014,0.0
49749,STARLINK-3250,PAYLOAD,2023-09-02 06:00:00,15.07229061,0.000107,53.2165,316.675,87.553,7.9572,-0.00036342,-5.814e-05,0.0,0 STARLINK-3250,1 49749U 21115AB  23245.25001157 -.00005814  00000-0 -36342-3 0  9991,2 49749  53.2165 316.6750 0001070  87.5530   7.9572 15.07229061 97831,6922.809,95.54,545.415,543.933,0.0
49749,STARLINK-3250,PAYLOAD,2023-09-02 14:00:01,15.07196203,0.0001158,53.2162,315.1839,77.9949,27.1762,-0.0014227,-0.00021868,0.0,0 STARLINK-3250,1 49749U 21115AB  23245.58334491 -.00021868  00000-0 -14227-2 0  9991,2 49749  53.2162 315.1839 0001158  77.9949  27.1762 15.07196203  5806,6922.909,95.542,545.576,543.973,0.0
49749,STARLINK-3250,PAYLOAD,2023-09-02 22:00:00,15.07191048,0.0001146,53.2159,313.6898,87.0975,27.6912,-9.608e-05,-1.745e-05,0.0,0 STARLINK-3250,1 49749U 21115AB  23245.91667824 -.00001745  00000-0 -96080-4 0  9998,2 49749  53.2159 313.6898 0001146  87.0975  27.6912 15.07191048 97937,6922.925,95.542,545.584,543.997,0.0
49749,STARLINK-3250,PAYLOAD,2023-09-03 06:00:00,15.07222199,0.0001216,53.2158,312.197,93.126,31.2853,-0.00030899,-4.986e-05,0.0,0 STARLINK-3250,1 49749U 21115AB  23246.25001157 -.00004986  00000-0 -30899-3 0  9992,2 49749  53.2158 312.1970 0001216  93.1260  31.2853 15.07222199 97986,6922.83,95.54,545.537,543.853,0.0
49749,STARLINK-3250,PAYLOAD,2023-09-03 14:00:01,15.0718895,0.000119,53.2155,310.7059,85.5196,48.5442,-0.00042749,-6.781e-05,0.0,0 STARLINK-3250,1 49749U 21115AB  23246.58334491 -.00006781  00000-0 -42749-3 0  9990,2 49749  53.2155 310.7059 0001190  85.5196  48.5442 15.07188950  5855,6922.932,95.542,545.62,543.973,0.0
49749,STARLINK-3250,PAYLOAD,2023-09-03 22:00:00,15.07183339,0.000115,53.2153,309.2117,96.0935,47.5798,0.00046199,6.752e-05,0.0,0 STARLINK-3250,1 49749U 21115AB  23246.91667824  .00006752  00000-0  46199-3 0  9995,2 49749  53.2153 309.2117 0001150  96.0935  47.5798 15.07183339 98081,6922.949,95.542,545.61,544.018,0.0
49749,STARLINK-3250,PAYLOAD,2023-09-04 03:43:54,15.07196734,4.48e-05,53.2177,308.1441,154.3408,205.7606,5.4041e-05,5.4e-06,0.0,0 STARLINK-3250,1 49749U 21115AB  23247.15548935  .00000540  00000-0  54041-4 0  9998,2 49749  53.2177 308.1441 0000448 154.3408 205.7606 15.07196734 97018,6922.908,95.542,545.083,544.463,0.0
49749,STARLINK-3250,PAYLOAD,2023-09-04 10:05:52,15.07196883,0.0001108,53.2185,306.9561,85.79,274.3218,-5.6239e-05,-1.139e-05,0.0,0 STARLINK-3250,1 49749U 21115AB  23247.42074341 -.00001139  00000-0 -56239-4 0  9991,2 49749  53.2185 306.9561 0001108  85.7900 274.3218 15.07196883 98167,6922.907,95.542,545.539,544.005,0.0
49749,STARLINK-3250,PAYLOAD,2023-09-04 21:14:17,15.07199633,0.00014,53.2178,304.8768,87.1979,272.9172,5.0967e-05,4.92e-06,0.0,0 STARLINK-3250,1 49749U 21115AB  23247.88492418  .00000492  00000-0  50967-4 0  9991,2 49749  53.2178 304.8768 0001400  87.1979 272.9172 15.07199633 98239,6922.899,95.541,545.733,543.795,0.0
49749,STARLINK-3250,PAYLOAD,2023-09-05 22:42:06,15.07206444,0.0001263,53.2167,300.1255,88.2453,271.8683,0.0001325,1.734e-05,0.0,0 STARLINK-3250,1 49749U 21115AB  23248.94590921  .00001734  00000-0  13250-3 0  9990,2 49749  53.2167 300.1255 0001263  88.2453 271.8683 15.07206444 98394,6922.878,95.541,545.617,543.869,0.0
